[{"OBJECT_NAME":"ONEWEB-0335","OBJECT_ID":"2021-083R","EPOCH":"2026-03-09T17:21:35.238528","MEAN_MOTION":13.13469859,"ECCENTRICITY":0.00016657,"INCLINATION":87.9032,"RA_OF_ASC_NODE":340.0211,"ARG_OF_PERICENTER":71.9332,"MEAN_ANOMALY":288.1978,"EPHEMERIS_TYPE":0,"CLASSIFICATION_TYPE":"U","NORAD_CAT_ID":49201,"ELEMENT_SET_NO":999,"REV_AT_EPOCH":21786,"BSTAR":0.00038737806,"MEAN_MOTION_DOT":1.54e-6,"MEAN_MOTION_DDOT":0},{"OBJECT_NAME":"DELTA 1 DEB","OBJECT_ID":"1975-052CE","EPOCH":"2026-03-09T20:02:15.178560","MEAN_MOTION":13.29434609,"ECCENTRICITY":0.00765354,"INCLINATION":99.8069,"RA_OF_ASC_NODE":138.6966,"ARG_OF_PERICENTER":297.8326,"MEAN_ANOMALY":176.8785,"EPHEMERIS_TYPE":0,"CLASSIFICATION_TYPE":"U","NORAD_CAT_ID":21360,"ELEMENT_SET_NO":999,"REV_AT_EPOCH":68849,"BSTAR":8.0394944e-5,"MEAN_MOTION_DOT":-5.0e-8,"MEAN_MOTION_DDOT":0}]
